STARLINK-4392           
1 53489U 22099AA  22241.66667824 -.01263245  00000+0 -13986-1 0  9999
2 53489  97.6558   0.4694 0001815  56.1717  23.8859 15.65737525  2885
STARLINK-4387           
1 53490U 22099AB  22241.66667824 -.01220142  00000+0 -13485-1 0  9994
2 53490  97.6559   0.4687 0001859  56.9986  21.1501 15.65684215  2886
STARLINK-4450           
1 53491U 22099AC  22241.66667824 -.01215824  00000+0 -13415-1 0  9999
2 53491  97.6560   0.4691 0001831  57.5209  23.8364 15.65716159  2888
STARLINK-4451           
1 53492U 22099AD  22241.66667824 -.01231491  00000+0 -13612-1 0  9997
2 53492  97.6559   0.4689 0001914  54.7439  24.6845 15.65706205  2884
STARLINK-4361           
1 53493U 22099AE  22241.66667824 -.01236720  00000+0 -13655-1 0  9995
2 53493  97.6558   0.4690 0001646  67.5253  15.1044 15.65747535  2881
STARLINK-4340           
1 53494U 22099AF  22241.66667824 -.01233894  00000+0 -13632-1 0  9990
2 53494  97.6557   0.4689 0001923  52.9520  27.7562 15.65723473  2881
STARLINK-4429           
1 53495U 22099AG  22241.66667824 -.01266185  00000+0 -13997-1 0  9994
2 53495  97.6557   0.4697 0001798  61.7321  22.1706 15.65782608  2893
STARLINK-4465           
1 53496U 22099AH  22241.66667824 -.01276475  00000+0 -14132-1 0  9990
2 53496  97.6559   0.4692 0001719  69.6231  12.3527 15.65769173  2884
STARLINK-4453           
1 53497U 22099AJ  22241.66667824 -.01233015  00000+0 -13595-1 0  9996
2 53497  97.6557   0.4694 0001881  54.5131  30.6831 15.65771845  2898
STARLINK-4439           
1 53498U 22099AK  22241.66667824 -.01227513  00000+0 -13542-1 0  9995
2 53498  97.6558   0.4692 0001795  56.2579  27.0181 15.65746288  2887
STARLINK-4454           
1 53499U 22099AL  22241.66667824 -.01229601  00000+0 -13551-1 0  9996
2 53499  97.6558   0.4697 0001818  55.9435  29.8945 15.65776505  2889
STARLINK-4455           
1 53500U 22099AM  22241.66667824 -.01224617  00000+0 -13500-1 0  9995
2 53500  97.6559   0.4692 0001785  58.6420  25.9166 15.65758429  2893
STARLINK-4434           
1 53501U 22099AN  22241.66667824 -.01238139  00000+0 -13640-1 0  9995
2 53501  97.6558   0.4700 0001868  54.4262  33.3300 15.65804423  2881
STARLINK-4435           
1 53502U 22099AP  22241.66667824 -.01231526  00000+0 -13570-1 0  9991
2 53502  97.6557   0.4695 0001783  62.8149  23.6627 15.65785227  2881
STARLINK-4461           
1 53503U 22099AQ  22241.66667824 -.01236877  00000+0 -13622-1 0  9994
2 53503  97.6557   0.4698 0001701  68.6265  19.7703 15.65810740  2888
STARLINK-4448           
1 53504U 22099AR  22241.66667824 -.01226594  00000+0 -13508-1 0  9993
2 53504  97.6558   0.4694 0001748  61.4727  25.6473 15.65788636  2889
STARLINK-4446           
1 53505U 22099AS  22241.66667824 -.01067476  00000+0 -11822-1 0  9993
2 53505  97.6558   0.4701 0001690  65.8567  24.5213 15.65714866  2889
