[{"OBJECT_NAME":"STARLINK-4392","OBJECT_ID":"2022-099AA","EPOCH":"2022-08-29T16:00:00.999936","MEAN_MOTION":15.65737525,"ECCENTRICITY":0.0001815,"INCLINATION":97.6558,"RA_OF_ASC_NODE":0.4694,"ARG_OF_PERICENTER":56.1717,"MEAN_ANOMALY":23.8859,"EPHEMERIS_TYPE":0,"CLASSIFICATION_TYPE":"U","NORAD_CAT_ID":53489,"ELEMENT_SET_NO":999,"REV_AT_EPOCH":288,"BSTAR":-0.013986,"MEAN_MOTION_DOT":-0.01263245,"MEAN_MOTION_DDOT":0},{"OBJECT_NAME":"STARLINK-4387","OBJECT_ID":"2022-099AB","EPOCH":"2022-08-29T16:00:00.999936","MEAN_MOTION":15.65684215,"ECCENTRICITY":0.0001859,"INCLINATION":97.6559,"RA_OF_ASC_NODE":0.4687,"ARG_OF_PERICENTER":56.9986,"MEAN_ANOMALY":21.1501,"EPHEMERIS_TYPE":0,"CLASSIFICATION_TYPE":"U","NORAD_CAT_ID":53490,"ELEMENT_SET_NO":999,"REV_AT_EPOCH":288,"BSTAR":-0.013485,"MEAN_MOTION_DOT":-0.01220142,"MEAN_MOTION_DDOT":0},{"OBJECT_NAME":"STARLINK-4450","OBJECT_ID":"2022-099AC","EPOCH":"2022-08-29T16:00:00.999936","MEAN_MOTION":15.65716159,"ECCENTRICITY":0.0001831,"INCLINATION":97.656,"RA_OF_ASC_NODE":0.4691,"ARG_OF_PERICENTER":57.5209,"MEAN_ANOMALY":23.8364,"EPHEMERIS_TYPE":0,"CLASSIFICATION_TYPE":"U","NORAD_CAT_ID":53491,"ELEMENT_SET_NO":999,"REV_AT_EPOCH":288,"BSTAR":-0.013415,"MEAN_MOTION_DOT":-0.01215824,"MEAN_MOTION_DDOT":0},{"OBJECT_NAME":"STARLINK-4451","OBJECT_ID":"2022-099AD","EPOCH":"2022-08-29T16:00:00.999936","MEAN_MOTION":15.65706205,"ECCENTRICITY":0.0001914,"INCLINATION":97.6559,"RA_OF_ASC_NODE":0.4689,"ARG_OF_PERICENTER":54.7439,"MEAN_ANOMALY":24.6845,"EPHEMERIS_TYPE":0,"CLASSIFICATION_TYPE":"U","NORAD_CAT_ID":53492,"ELEMENT_SET_NO":999,"REV_AT_EPOCH":288,"BSTAR":-0.013612,"MEAN_MOTION_DOT":-0.01231491,"MEAN_MOTION_DDOT":0},{"OBJECT_NAME":"STARLINK-4361","OBJECT_ID":"2022-099AE","EPOCH":"2022-08-29T16:00:00.999936","MEAN_MOTION":15.65747535,"ECCENTRICITY":0.0001646,"INCLINATION":97.6558,"RA_OF_ASC_NODE":0.469,"ARG_OF_PERICENTER":67.5253,"MEAN_ANOMALY":15.1044,"EPHEMERIS_TYPE":0,"CLASSIFICATION_TYPE":"U","NORAD_CAT_ID":53493,"ELEMENT_SET_NO":999,"REV_AT_EPOCH":288,"BSTAR":-0.013655,"MEAN_MOTION_DOT":-0.0123672,"MEAN_MOTION_DDOT":0},{"OBJECT_NAME":"STARLINK-4340","OBJECT_ID":"2022-099AF","EPOCH":"2022-08-29T16:00:00.999936","MEAN_MOTION":15.65723473,"ECCENTRICITY":0.0001923,"INCLINATION":97.6557,"RA_OF_ASC_NODE":0.4689,"ARG_OF_PERICENTER":52.952,"MEAN_ANOMALY":27.7562,"EPHEMERIS_TYPE":0,"CLASSIFICATION_TYPE":"U","NORAD_CAT_ID":53494,"ELEMENT_SET_NO":999,"REV_AT_EPOCH":288,"BSTAR":-0.013632,"MEAN_MOTION_DOT":-0.01233894,"MEAN_MOTION_DDOT":0},{"OBJECT_NAME":"STARLINK-4429","OBJECT_ID":"2022-099AG","EPOCH":"2022-08-29T16:00:00.999936","MEAN_MOTION":15.65782608,"ECCENTRICITY":0.0001798,"INCLINATION":97.6557,"RA_OF_ASC_NODE":0.4697,"ARG_OF_PERICENTER":61.7321,"MEAN_ANOMALY":22.1706,"EPHEMERIS_TYPE":0,"CLASSIFICATION_TYPE":"U","NORAD_CAT_ID":53495,"ELEMENT_SET_NO":999,"REV_AT_EPOCH":289,"BSTAR":-0.013997,"MEAN_MOTION_DOT":-0.01266185,"MEAN_MOTION_DDOT":0},{"OBJECT_NAME":"STARLINK-4465","OBJECT_ID":"2022-099AH","EPOCH":"2022-08-29T16:00:00.999936","MEAN_MOTION":15.65769173,"ECCENTRICITY":0.0001719,"INCLINATION":97.6559,"RA_OF_ASC_NODE":0.4692,"ARG_OF_PERICENTER":69.6231,"MEAN_ANOMALY":12.3527,"EPHEMERIS_TYPE":0,"CLASSIFICATION_TYPE":"U","NORAD_CAT_ID":53496,"ELEMENT_SET_NO":999,"REV_AT_EPOCH":288,"BSTAR":-0.014132,"MEAN_MOTION_DOT":-0.01276475,"MEAN_MOTION_DDOT":0},{"OBJECT_NAME":"STARLINK-4453","OBJECT_ID":"2022-099AJ","EPOCH":"2022-08-29T16:00:00.999936","MEAN_MOTION":15.65771845,"ECCENTRICITY":0.0001881,"INCLINATION":97.6557,"RA_OF_ASC_NODE":0.4694,"ARG_OF_PERICENTER":54.5131,"MEAN_ANOMALY":30.6831,"EPHEMERIS_TYPE":0,"CLASSIFICATION_TYPE":"U","NORAD_CAT_ID":53497,"ELEMENT_SET_NO":999,"REV_AT_EPOCH":289,"BSTAR":-0.013595,"MEAN_MOTION_DOT":-0.01233015,"MEAN_MOTION_DDOT":0},{"OBJECT_NAME":"STARLINK-4439","OBJECT_ID":"2022-099AK","EPOCH":"2022-08-29T16:00:00.999936","MEAN_MOTION":15.65746288,"ECCENTRICITY":0.0001795,"INCLINATION":97.6558,"RA_OF_ASC_NODE":0.4692,"ARG_OF_PERICENTER":56.2579,"MEAN_ANOMALY":27.0181,"EPHEMERIS_TYPE":0,"CLASSIFICATION_TYPE":"U","NORAD_CAT_ID":53498,"ELEMENT_SET_NO":999,"REV_AT_EPOCH":288,"BSTAR":-0.013542,"MEAN_MOTION_DOT":-0.01227513,"MEAN_MOTION_DDOT":0},{"OBJECT_NAME":"STARLINK-4454","OBJECT_ID":"2022-099AL","EPOCH":"2022-08-29T16:00:00.999936","MEAN_MOTION":15.65776505,"ECCENTRICITY":0.0001818,"INCLINATION":97.6558,"RA_OF_ASC_NODE":0.4697,"ARG_OF_PERICENTER":55.9435,"MEAN_ANOMALY":29.8945,"EPHEMERIS_TYPE":0,"CLASSIFICATION_TYPE":"U","NORAD_CAT_ID":53499,"ELEMENT_SET_NO":999,"REV_AT_EPOCH":288,"BSTAR":-0.013551,"MEAN_MOTION_DOT":-0.01229601,"MEAN_MOTION_DDOT":0},{"OBJECT_NAME":"STARLINK-4455","OBJECT_ID":"2022-099AM","EPOCH":"2022-08-29T16:00:00.999936","MEAN_MOTION":15.65758429,"ECCENTRICITY":0.0001785,"INCLINATION":97.6559,"RA_OF_ASC_NODE":0.4692,"ARG_OF_PERICENTER":58.642,"MEAN_ANOMALY":25.9166,"EPHEMERIS_TYPE":0,"CLASSIFICATION_TYPE":"U","NORAD_CAT_ID":53500,"ELEMENT_SET_NO":999,"REV_AT_EPOCH":289,"BSTAR":-0.0135,"MEAN_MOTION_DOT":-0.01224617,"MEAN_MOTION_DDOT":0},{"OBJECT_NAME":"STARLINK-4434","OBJECT_ID":"2022-099AN","EPOCH":"2022-08-29T16:00:00.999936","MEAN_MOTION":15.65804423,"ECCENTRICITY":0.0001868,"INCLINATION":97.6558,"RA_OF_ASC_NODE":0.47,"ARG_OF_PERICENTER":54.4262,"MEAN_ANOMALY":33.33,"EPHEMERIS_TYPE":0,"CLASSIFICATION_TYPE":"U","NORAD_CAT_ID":53501,"ELEMENT_SET_NO":999,"REV_AT_EPOCH":288,"BSTAR":-0.01364,"MEAN_MOTION_DOT":-0.01238139,"MEAN_MOTION_DDOT":0},{"OBJECT_NAME":"STARLINK-4435","OBJECT_ID":"2022-099AP","EPOCH":"2022-08-29T16:00:00.999936","MEAN_MOTION":15.65785227,"ECCENTRICITY":0.0001783,"INCLINATION":97.6557,"RA_OF_ASC_NODE":0.4695,"ARG_OF_PERICENTER":62.8149,"MEAN_ANOMALY":23.6627,"EPHEMERIS_TYPE":0,"CLASSIFICATION_TYPE":"U","NORAD_CAT_ID":53502,"ELEMENT_SET_NO":999,"REV_AT_EPOCH":288,"BSTAR":-0.01357,"MEAN_MOTION_DOT":-0.01231526,"MEAN_MOTION_DDOT":0},{"OBJECT_NAME":"STARLINK-4461","OBJECT_ID":"2022-099AQ","EPOCH":"2022-08-29T16:00:00.999936","MEAN_MOTION":15.6581074,"ECCENTRICITY":0.0001701,"INCLINATION":97.6557,"RA_OF_ASC_NODE":0.4698,"ARG_OF_PERICENTER":68.6265,"MEAN_ANOMALY":19.7703,"EPHEMERIS_TYPE":0,"CLASSIFICATION_TYPE":"U","NORAD_CAT_ID":53503,"ELEMENT_SET_NO":999,"REV_AT_EPOCH":288,"BSTAR":-0.013622,"MEAN_MOTION_DOT":-0.01236877,"MEAN_MOTION_DDOT":0},{"OBJECT_NAME":"STARLINK-4448","OBJECT_ID":"2022-099AR","EPOCH":"2022-08-29T16:00:00.999936","MEAN_MOTION":15.65788636,"ECCENTRICITY":0.0001748,"INCLINATION":97.6558,"RA_OF_ASC_NODE":0.4694,"ARG_OF_PERICENTER":61.4727,"MEAN_ANOMALY":25.6473,"EPHEMERIS_TYPE":0,"CLASSIFICATION_TYPE":"U","NORAD_CAT_ID":53504,"ELEMENT_SET_NO":999,"REV_AT_EPOCH":288,"BSTAR":-0.013508,"MEAN_MOTION_DOT":-0.01226594,"MEAN_MOTION_DDOT":0},{"OBJECT_NAME":"STARLINK-4446","OBJECT_ID":"2022-099AS","EPOCH":"2022-08-29T16:00:00.999936","MEAN_MOTION":15.65714866,"ECCENTRICITY":0.000169,"INCLINATION":97.6558,"RA_OF_ASC_NODE":0.4701,"ARG_OF_PERICENTER":65.8567,"MEAN_ANOMALY":24.5213,"EPHEMERIS_TYPE":0,"CLASSIFICATION_TYPE":"U","NORAD_CAT_ID":53505,"ELEMENT_SET_NO":999,"REV_AT_EPOCH":288,"BSTAR":-0.011822,"MEAN_MOTION_DOT":-0.01067476,"MEAN_MOTION_DDOT":0}]
